NORAD_CAT_ID,OBJECT_NAME,OBJECT_TYPE,EPOCH,MEAN_MOTION,ECCENTRICITY,INCLINATION,RA_OF_ASC_NODE,ARG_OF_PERICENTER,MEAN_ANOMALY,BSTAR,MEAN_MOTION_DOT,MEAN_MOTION_DDOT,TLE_LINE0,TLE_LINE1,TLE_LINE2,SEMIMAJOR_AXIS,PERIOD,APOGEE,PERIGEE,DECAYED
53837.0,STARLINK-4776,PAYLOAD,2023-01-12 21:28:48,15.08841094,0.0002096,53.2166,74.4366,27.7797,332.3307,-3.1249e-05,-7.86e-06,0.0,0 STARLINK-4776,1 53837U 22114V   23012.89500686 -.00000786  00000-0 -31249-4 0  9992,2 53837  53.2166  74.4366 0002096  27.7797 332.3307 15.08841094 18412,6917.877,95.437,541.192,538.2919999999998,0.0
53837.0,STARLINK-4776,PAYLOAD,2023-01-13 10:11:55,15.08818655,0.0002038,53.2166,72.0561,32.1016,328.01,-0.0001935,-3.365e-05,0.0,0 STARLINK-4776,1 53837U 22114V   23013.42494915 -.00003365  00000-0 -19350-3 0  9993,2 53837  53.2166  72.0561 0002038  32.1016 328.0100 15.08818655 18491,6917.946,95.439,541.221,538.401,0.0
53837.0,STARLINK-4776,PAYLOAD,2023-01-13 21:19:36,15.0883166,0.0002165,53.2185,69.97399999999999,40.8731,319.2423,-6.451800000000001e-05,-1.315e-05,0.0,0 STARLINK-4776,1 53837U 22114V   23013.88862208 -.00001315  00000-0 -64518-4 0  9997,2 53837  53.2185  69.9740 0002165  40.8731 319.2423 15.08831660 19107,6917.906,95.438,541.269,538.273,0.0
53837.0,STARLINK-4776,PAYLOAD,2023-01-14 06:51:55,15.0883427,0.0002181,53.2156,68.1911,36.5134,323.6006,0.0001691,2.404e-05,0.0,0 STARLINK-4776,1 53837U 22114V   23014.28606120  .00002404  00000-0  16910-3 0  9991,2 53837  53.2156  68.1911 0002181  36.5134 323.6006 15.08834270 18625,6917.898,95.438,541.2719999999999,538.254,0.0
53837.0,STARLINK-4776,PAYLOAD,2023-01-15 03:31:57,15.08825904,0.0002105,53.2167,64.3247,39.901,320.2137,0.00033446,5.037e-05,0.0,0 STARLINK-4776,1 53837U 22114V   23015.14719363  .00005037  00000-0  33446-3 0  9999,2 53837  53.2167  64.3247 0002105  39.9010 320.2137 15.08825904 18759,6917.923000000001,95.438,541.245,538.332,0.0
53837.0,STARLINK-4776,PAYLOAD,2023-01-15 09:53:30,15.08832062,0.0001749,53.2169,63.1349,36.355,323.756,0.00036486,5.522e-05,0.0,0 STARLINK-4776,1 53837U 22114V   23015.41215403  .00005522  00000-0  36486-3 0  9991,2 53837  53.2169  63.1349 0001749  36.3550 323.7560 15.08832062 19330,6917.905,95.438,540.98,538.56,0.0
53837.0,STARLINK-4776,PAYLOAD,2023-01-15 19:25:48,15.08843046,0.0001940999999999,53.2172,61.3516,46.6605,313.4548,0.00032872,4.948e-05,0.0,0 STARLINK-4776,1 53837U 22114V   23015.80959063  .00004948  00000-0  32872-3 0  9997,2 53837  53.2172  61.3516 0001941  46.6605 313.4548 15.08843046 18851,6917.871,95.437,541.0790000000001,538.393,0.0
53837.0,STARLINK-4776,PAYLOAD,2023-01-16 12:55:01,15.08876664,0.0001789,53.2175,58.0803,54.5781,305.5378,0.0011505999999999,0.0001809,0.0,0 STARLINK-4776,1 53837U 22114V   23016.53821666  .00018090  00000-0  11506-2 0  9998,2 53837  53.2175  58.0803 0001789  54.5781 305.5378 15.08876664 18966,6917.768,95.435,540.871,538.396,0.0
53837.0,STARLINK-4776,PAYLOAD,2023-01-16 19:16:35,15.08827962,0.0001771,53.2177,56.891000000000005,72.8005,287.3181,-0.00033455,-5.607e-05,0.0,0 STARLINK-4776,1 53837U 22114V   23016.80318857 -.00005607  00000-0 -33455-3 0  9991,2 53837  53.2177  56.8910 0001771  72.8005 287.3181 15.08827962 19008,6917.917,95.438,541.007,538.557,0.0
53837.0,STARLINK-4776,PAYLOAD,2023-01-17 11:10:27,15.08817058,0.0001754,53.2167,53.9183,71.2952,288.823,-0.00034527,-5.775e-05,0.0,0 STARLINK-4776,1 53837U 22114V   23017.46560007 -.00005775  00000-0 -34527-3 0  9997,2 53837  53.2167  53.9183 0001754  71.2952 288.8230 15.08817058 19648,6917.951,95.439,541.029,538.602,0.0
53837.0,STARLINK-4776,PAYLOAD,2023-01-17 19:07:23,15.08826529,0.0001614,53.2174,52.4314,78.4534,281.6639,0.00091314,0.00014269,0.0,0 STARLINK-4776,1 53837U 22114V   23017.79680418  .00014269  00000-0  91314-3 0  9995,2 53837  53.2174  52.4314 0001614  78.4534 281.6639 15.08826529 19698,6917.922,95.438,540.903,538.67,0.0
53837.0,STARLINK-4776,PAYLOAD,2023-01-18 07:50:28,15.08876251,0.0001529,53.2172,50.0523,80.1825,279.934,0.0025693,0.00040881,0.0,0 STARLINK-4776,1 53837U 22114V   23018.32671998  .00040881  00000-0  25693-2 0  9993,2 53837  53.2172  50.0523 0001529  80.1825 279.9340 15.08876251 19236,6917.77,95.435,540.692,538.577,0.0
53837.0,STARLINK-4776,PAYLOAD,2023-01-18 11:01:14,15.08886097,0.0001545,53.2171,49.4576,79.9486,280.168,0.0026311,0.00041888,0.0,0 STARLINK-4776,1 53837U 22114V   23018.45919666  .00041888  00000-0  26311-2 0  9990,2 53837  53.2171  49.4576 0001545  79.9486 280.1680 15.08886097 19793,6917.7390000000005,95.435,540.673,538.536,0.0
53837.0,STARLINK-4776,PAYLOAD,2023-01-18 18:58:09,15.08876906,0.0001346,53.2174,47.9704,85.5561,274.5585,0.0013897,0.00021921,0.0,0 STARLINK-4776,1 53837U 22114V   23018.79039200  .00021921  00000-0  13897-2 0  9995,2 53837  53.2174  47.9704 0001346  85.5561 274.5585 15.08876906 19304,6917.768,95.435,540.564,538.701,0.0
53837.0,STARLINK-4776,PAYLOAD,2023-01-19 10:52:00,15.08871381,0.0001418,53.2164,44.9965,83.8687,276.2467,0.0014889,0.00023508,0.0,0 STARLINK-4776,1 53837U 22114V   23019.45278548  .00023508  00000-0  14889-2 0  9994,2 53837  53.2164  44.9965 0001418  83.8687 276.2467 15.08871381 19400,6917.784000000001,95.436,540.63,538.669,0.0
53837.0,STARLINK-4776,PAYLOAD,2023-01-19 12:27:23,15.08882451,0.0001324,53.2164,44.6999,85.9715,274.1428,0.0023873,0.00037955,0.0,0 STARLINK-4776,1 53837U 22114V   23019.51902360  .00037955  00000-0  23873-2 0  9991,2 53837  53.2164  44.6999 0001324  85.9715 274.1428 15.08882451 19959,6917.751,95.435,540.5319999999999,538.7,0.0
53837.0,STARLINK-4776,PAYLOAD,2023-01-20 10:42:48,15.0884093,0.0001330999999999,53.2167,40.5353,106.1441,253.9697,0.0013072,0.00020578,0.0,0 STARLINK-4776,1 53837U 22114V   23020.44639358  .00020578  00000-0  13072-2 0  9992,2 53837  53.2167  40.5353 0001331 106.1441 253.9697 15.08840930 19556,6917.878000000001,95.437,540.663,538.822,0.0
53837.0,STARLINK-4776,PAYLOAD,2023-01-21 07:22:49,15.08848349,0.0001361999999999,53.2168,36.6703,94.6236,265.4911,0.0017041,0.00026943,0.0,0 STARLINK-4776,1 53837U 22114V   23021.30752101  .00026943  00000-0  17041-2 0  9992,2 53837  53.2168  36.6703 0001362  94.6236 265.4911 15.08848349 19682,6917.855,95.437,540.6619999999999,538.778,0.0
53837.0,STARLINK-4776,PAYLOAD,2023-01-22 04:02:50,15.088608,0.0001334,53.2176,32.8049,111.2576,248.8559,0.0016640999999999,0.0002631,0.0,0 STARLINK-4776,1 53837U 22114V   23022.16863878  .00026310  00000-0  16641-2 0  9994,2 53837  53.2176  32.8049 0001334 111.2576 248.8559 15.08860800 19818,6917.816999999999,95.436,540.605,538.759,0.0
53837.0,STARLINK-4776,PAYLOAD,2023-01-23 00:42:51,15.08847966,0.0001214,53.2181,28.9382,111.519,248.5931,0.0017481999999999,0.0002765,0.0,0 STARLINK-4776,1 53837U 22114V   23023.02976037  .00027650  00000-0  17482-2 0  9994,2 53837  53.2181  28.9382 0001214 111.5190 248.5931 15.08847966 19945,6917.856,95.437,540.561,538.881,0.0
53837.0,STARLINK-4776,PAYLOAD,2023-01-23 10:15:10,15.08843869,0.0001234,53.2184,27.1536,108.0958,252.0169,0.00097881,0.00015326,0.0,0 STARLINK-4776,1 53837U 22114V   23023.42720039  .00015326  00000-0  97881-3 0  9996,2 53837  53.2184  27.1536 0001234 108.0958 252.0169 15.08843869 20005,6917.869000000001,95.437,540.587,538.88,0.0
53837.0,STARLINK-4776,PAYLOAD,2023-01-23 16:36:42,15.08839071,0.0001365999999999,53.2183,25.9624,88.6467,271.4681,0.00043163,6.588e-05,0.0,0 STARLINK-4776,1 53837U 22114V   23023.69216261  .00006588  00000-0  43163-3 0  9996,2 53837  53.2183  25.9624 0001366  88.6467 271.4681 15.08839071 20040,6917.883000000001,95.438,540.693,538.803,0.0
53837.0,STARLINK-4776,PAYLOAD,2023-01-24 16:27:30,15.08840651,0.0001315,53.2178,21.5046,91.2338,268.8805,0.00016272,2.303e-05,0.0,0 STARLINK-4776,1 53837U 22114V   23024.68576394  .00002303  00000-0  16272-3 0  9994,2 53837  53.2178  21.5046 0001315  91.2338 268.8805 15.08840651 20195,6917.878000000001,95.438,540.653,538.8340000000001,0.0
53837.0,STARLINK-4776,PAYLOAD,2023-01-25 06:45:58,15.08837584,0.0001209,53.2181,18.8326,109.2906,250.8217,0.00016316,2.31e-05,0.0,0 STARLINK-4776,1 53837U 22114V   23025.28192789  .00002310  00000-0  16316-3 0  9990,2 53837  53.2181  18.8326 0001209 109.2906 250.8217 15.08837584 20821,6917.888000000001,95.438,540.589,538.9159999999999,0.0
53837.0,STARLINK-4776,PAYLOAD,2023-01-25 16:18:17,15.08845017,0.0001186,53.2185,17.0468,96.1931,263.9196,0.00022214,3.2500000000000004e-05,0.0,0 STARLINK-4776,1 53837U 22114V   23025.67936496  .00003250  00000-0  22214-3 0  9992,2 53837  53.2185  17.0468 0001186  96.1931 263.9196 15.08845017 20886,6917.865,95.437,540.5509999999999,538.91,0.0
53837.0,STARLINK-4776,PAYLOAD,2023-01-26 08:12:08,15.08850598,0.0001196,53.2169,14.0729,108.6972,251.415,0.0002492,3.681e-05,0.0,0 STARLINK-4776,1 53837U 22114V   23026.34176172  .00003681  00000-0  24920-3 0  9998,2 53837  53.2169  14.0729 0001196 108.6972 251.4150 15.08850598 20444,6917.848000000001,95.437,540.54,538.886,0.0
53837.0,STARLINK-4776,PAYLOAD,2023-01-26 17:44:27,15.08842425,0.0001296999999999,53.2197,12.2855,121.7418,238.3701,8.682799999999999e-05,1.094e-05,0.0,0 STARLINK-4776,1 53837U 22114V   23026.73920432  .00001094  00000-0  86828-4 0  9999,2 53837  53.2197  12.2855 0001297 121.7418 238.3701 15.08842425 20501,6917.8730000000005,95.437,540.635,538.841,0.0
53837.0,STARLINK-4776,PAYLOAD,2023-01-27 08:02:55,15.08852801,0.0001171999999999,53.2179,9.611,89.6773,270.4353,0.00022249,3.256e-05,0.0,0 STARLINK-4776,1 53837U 22114V   23027.33536005  .00003256  00000-0  22249-3 0  9993,2 53837  53.2179   9.6110 0001172  89.6773 270.4353 15.08852801 21132,6917.840999999999,95.437,540.5169999999999,538.895,0.0
53837.0,STARLINK-4776,PAYLOAD,2023-01-27 17:35:14,15.08842106,0.0001109,53.2184,7.8261,106.105,254.0065,-5.2152e-05,-1.118e-05,0.0,0 STARLINK-4776,1 53837U 22114V   23027.73280389 -.00001118  00000-0 -52152-4 0  9992,2 53837  53.2184   7.8261 0001109 106.1050 254.0065 15.08842106 21199,6917.874,95.437,540.506,538.972,0.0
